NORAD_CAT_ID,OBJECT_NAME,OBJECT_TYPE,EPOCH,MEAN_MOTION,ECCENTRICITY,INCLINATION,RA_OF_ASC_NODE,ARG_OF_PERICENTER,MEAN_ANOMALY,BSTAR,MEAN_MOTION_DOT,MEAN_MOTION_DDOT,TLE_LINE0,TLE_LINE1,TLE_LINE2,SEMIMAJOR_AXIS,PERIOD,APOGEE,PERIGEE,DECAYED
55308.0,STARLINK-5292,PAYLOAD,2023-05-23 05:35:32,15.69904856,0.0002331,70.0003,81.1141,252.1459,107.9483,2.5148e-05,2.81e-05,0.0,0 STARLINK-5292,1 55308U 23010AR  23143.23302035  .00002810  00000-0  25148-4 0  9993,2 55308  70.0003  81.1141 0002331 252.1459 107.9483 15.69904856 19922,6737.306,91.725,360.742,357.601,0.0
55308.0,STARLINK-5292,PAYLOAD,2023-05-24 04:31:47,15.69943469,0.0003604,69.9982,78.4293,260.7203,99.3585,-2.0793e-06,-4.63e-06,0.0,0 STARLINK-5292,1 55308U 23010AR  23144.18874928 -.00000463  00000-0 -20793-5 0  9999,2 55308  69.9982  78.4293 0003604 260.7203  99.3585 15.69943469 20076,6737.196,91.723,361.489,356.633,0.0
55308.0,STARLINK-5292,PAYLOAD,2023-05-24 09:07:03,15.69943603,0.0003571,69.9981,77.8915,259.599,100.4803,-5.1585e-07,-2.75e-06,0.0,0 STARLINK-5292,1 55308U 23010AR  23144.37989851 -.00000275  00000-0 -51585-6 0  9997,2 55308  69.9981  77.8915 0003571 259.5990 100.4803 15.69943603 21293,6737.195,91.723,361.466,356.654,0.0
55308.0,STARLINK-5292,PAYLOAD,2023-05-25 18:45:37,15.69916196,0.0003602,69.9983,73.9504,260.8825,99.1963,-9.5765e-06,-1.364e-05,0.0,0 STARLINK-5292,1 55308U 23010AR  23145.78168450 -.00001364  00000-0 -95765-5 0  9994,2 55308  69.9983  73.9504 0003602 260.8825  99.1963 15.69916196 20324,6737.274,91.725,361.566,356.712,0.0
55308.0,STARLINK-5292,PAYLOAD,2023-05-25 21:49:07,15.699154,0.0003547,69.9983,73.5922,259.9987,100.0809,-1.0548e-05,-1.481e-05,0.0,0 STARLINK-5292,1 55308U 23010AR  23145.90911912 -.00001481  00000-0 -10548-4 0  9992,2 55308  69.9983  73.5922 0003547 259.9987 100.0809 15.69915400 21532,6737.276,91.725,361.531,356.751,0.0
55308.0,STARLINK-5292,PAYLOAD,2023-05-26 05:27:52,15.69924502,0.000361,69.9983,72.6964,259.8349,100.244,8.5758e-06,8.18e-06,0.0,0 STARLINK-5292,1 55308U 23010AR  23146.22769380  .00000818  00000-0  85758-5 0  9995,2 55308  69.9983  72.6964 0003610 259.8349 100.2440 15.69924502 20399,6737.25,91.724,361.547,356.683,0.0
55308.0,STARLINK-5292,PAYLOAD,2023-05-26 22:17:09,15.69921677,0.0003535,69.9983,70.7259,262.155,97.9245,1.3681e-05,1.432e-05,0.0,0 STARLINK-5292,1 55308U 23010AR  23146.92857847  .00001432  00000-0  13681-4 0  9996,2 55308  69.9983  70.7259 0003535 262.1550  97.9245 15.69921677 21691,6737.258,91.724,361.505,356.741,0.0
55308.0,STARLINK-5292,PAYLOAD,2023-05-27 21:13:25,15.69933437,0.0003421,69.9983,68.0387,262.3903,97.6904,-3.5638e-06,-6.41e-06,0.0,0 STARLINK-5292,1 55308U 23010AR  23147.88432435 -.00000641  00000-0 -35638-5 0  9994,2 55308  69.9983  68.0387 0003421 262.3903  97.6904 15.69933437 20652,6737.224,91.724,361.394,356.785,0.0
55308.0,STARLINK-5292,PAYLOAD,2023-05-28 04:52:12,15.6991524,0.0003475,69.9984,67.143,266.8105,93.2693,2.6202e-05,2.938e-05,0.0,0 STARLINK-5292,1 55308U 23010AR  23148.20291674  .00002938  00000-0  26202-4 0  9994,2 55308  69.9984  67.1430 0003475 266.8105  93.2693 15.69915240 20709,6737.276,91.725,361.483,356.8,0.0
55308.0,STARLINK-5292,PAYLOAD,2023-05-28 21:41:28,15.699222,0.0003354,69.9991,65.1718,268.0181,92.0631,1.8054e-05,1.958e-05,0.0,0 STARLINK-5292,1 55308U 23010AR  23148.90379757  .00001958  00000-0  18054-4 0  9997,2 55308  69.9991  65.1718 0003354 268.0181  92.0631 15.69922200 22006,6737.257,91.724,361.381,356.862,0.0
55308.0,STARLINK-5292,PAYLOAD,2023-05-29 03:48:28,15.69928532,0.0003515,69.9978,64.4559,262.8491,97.2305,1.3028e-05,1.354e-05,0.0,0 STARLINK-5292,1 55308U 23010AR  23149.15866096  .00001354  00000-0  13028-4 0  9998,2 55308  69.9978  64.4559 0003515 262.8491  97.2305 15.69928532 20851,6737.238,91.724,361.472,356.735,0.0
55308.0,STARLINK-5292,PAYLOAD,2023-05-29 17:34:15,15.69920674,0.0003217,69.9988,62.8434,264.4541,95.6288,4.262e-06,3e-06,0.0,0 STARLINK-5292,1 55308U 23010AR  23149.73211973  .00000300  00000-0  42620-5 0  9991,2 55308  69.9988  62.8434 0003217 264.4541  95.6288 15.69920674 20940,6737.261,91.724,361.293,356.959,0.0
55308.0,STARLINK-5292,PAYLOAD,2023-05-29 20:37:45,15.69923717,0.0003198,69.9988,62.4853,264.2059,95.8772,7.4407e-06,6.82e-06,0.0,0 STARLINK-5292,1 55308U 23010AR  23149.85955088  .00000682  00000-0  74407-5 0  9997,2 55308  69.9988  62.4853 0003198 264.2059  95.8772 15.69923717 22157,6737.252,91.724,361.272,356.963,0.0
55308.0,STARLINK-5292,PAYLOAD,2023-05-30 04:16:30,15.69934802,0.0003465,70.0012,61.5903,273.528,86.5519,2.3823e-05,2.654e-05,0.0,0 STARLINK-5292,1 55308U 23010AR  23150.17812683  .00002654  00000-0  23823-4 0  9993,2 55308  70.0012  61.5903 0003465 273.5280  86.5519 15.69934802 21017,6737.221,91.724,361.42,356.751,0.0
55308.0,STARLINK-5292,PAYLOAD,2023-05-30 21:05:46,15.69922949,0.0003669,69.9998,59.6183,264.6275,95.4502,1.4666e-06,-3.7e-07,0.0,0 STARLINK-5292,1 55308U 23010AR  23150.87901613 -.00000037  00000-0  14666-5 0  9992,2 55308  69.9998  59.6183 0003669 264.6275  95.4502 15.69922949 22310,6737.254,91.724,361.591,356.648,0.0
55308.0,STARLINK-5292,PAYLOAD,2023-05-31 01:41:02,15.6992927,0.0003498,70.0001,59.0818,261.6487,98.4312,1.3794e-05,1.446e-05,0.0,0 STARLINK-5292,1 55308U 23010AR  23151.07016362  .00001446  00000-0  13794-4 0  9997,2 55308  70.0001  59.0818 0003498 261.6487  98.4312 15.69929270 21156,6737.236,91.724,361.458,356.745,0.0
55308.0,STARLINK-5292,PAYLOAD,2023-05-31 03:12:47,15.69927774,0.0003064,70.0004,58.9023,249.5609,110.5258,2.0603e-05,2.266e-05,0.0,0 STARLINK-5292,1 55308U 23010AR  23151.13388193  .00002266  00000-0  20603-4 0  9996,2 55308  70.0004  58.9023 0003064 249.5609 110.5258 15.69927774 22350,6737.241,91.724,361.17,357.041,0.0
55308.0,STARLINK-5292,PAYLOAD,2023-05-31 18:30:18,15.69922999,0.0003232,70.001,57.1103,254.8363,105.2475,4.3329e-06,3.08e-06,0.0,0 STARLINK-5292,1 55308U 23010AR  23151.77105170  .00000308  00000-0  43329-5 0  9994,2 55308  70.0010  57.1103 0003232 254.8363 105.2475 15.69922999 21265,6737.254,91.724,361.297,356.942,0.0
55308.0,STARLINK-5292,PAYLOAD,2023-05-31 20:02:04,15.69921689,0.0003355,70.0004,56.9309,257.1129,102.9692,-6.025e-07,-2.85e-06,0.0,0 STARLINK-5292,1 55308U 23010AR  23151.83476880 -.00000285  00000-0 -60250-6 0  9999,2 55308  70.0004  56.9309 0003355 257.1129 102.9692 15.69921689 22468,6737.258,91.724,361.383,356.863,0.0
55308.0,STARLINK-5292,PAYLOAD,2023-06-01 08:16:04,15.69934116,0.0003356,69.9994,55.4958,262.4473,97.6341,1.3606e-05,1.424e-05,0.0,0 STARLINK-5292,1 55308U 23010AR  23152.34449621  .00001424  00000-0  13606-4 0  9994,2 55308  69.9994  55.4958 0003356 262.4473  97.6341 15.69934116 22548,6737.222,91.724,361.349,356.826,0.0
55308.0,STARLINK-5292,PAYLOAD,2023-06-02 01:05:21,15.69925575,0.0003372,70.0001,53.5275,273.8246,86.2565,8.1408e-06,7.66e-06,0.0,0 STARLINK-5292,1 55308U 23010AR  23153.04538508  .00000766  00000-0  81408-5 0  9999,2 55308  70.0001  53.5275 0003372 273.8246  86.2565 15.69925575 21464,6737.247,91.724,361.384,356.84,0.0
55308.0,STARLINK-5292,PAYLOAD,2023-06-02 02:37:06,15.69923376,0.0003484,69.9995,53.3488,272.0466,88.033,3.2453e-06,1.77e-06,0.0,0 STARLINK-5292,1 55308U 23010AR  23153.10910227  .00000177  00000-0  32453-5 0  9990,2 55308  69.9995  53.3488 0003484 272.0466  88.0330 15.69923376 22666,6737.253,91.724,361.465,356.771,0.0
55308.0,STARLINK-5292,PAYLOAD,2023-06-02 17:54:38,15.69915546,0.0003468,69.9991,51.5579,272.7446,87.3352,2.8033e-05,3.158e-05,0.0,0 STARLINK-5292,1 55308U 23010AR  23153.74627452  .00003158  00000-0  28033-4 0  9995,2 55308  69.9991  51.5579 0003468 272.7446  87.3352 15.69915546 21575,6737.276,91.725,361.477,356.804,0.0
55308.0,STARLINK-5292,PAYLOAD,2023-06-02 19:26:23,15.69918497,0.0003475,69.9979,51.3771,270.2042,89.8755,1.4041e-05,1.475e-05,0.0,0 STARLINK-5292,1 55308U 23010AR  23153.80999041  .00001475  00000-0  14041-4 0  9992,2 55308  69.9979  51.3771 0003475 270.2042  89.8755 15.69918497 22771,6737.267,91.725,361.473,356.791,0.0
55308.0,STARLINK-5292,PAYLOAD,2023-06-03 03:05:08,15.69918641,0.0003364,69.9978,50.4799,271.8867,88.1944,3.0548e-06,1.54e-06,0.0,0 STARLINK-5292,1 55308U 23010AR  23154.12857551  .00000154  00000-0  30548-5 0  9991,2 55308  69.9978  50.4799 0003364 271.8867  88.1944 15.69918641 22828,6737.267,91.724,361.398,356.865,0.0
55308.0,STARLINK-5292,PAYLOAD,2023-06-03 18:22:39,15.69924336,0.0003472,69.9977,48.6895,272.2308,87.849,1.08e-05,1.086e-05,0.0,0 STARLINK-5292,1 55308U 23010AR  23154.76573757  .00001086  00000-0  10800-4 0  9997,2 55308  69.9977  48.6895 0003472 272.2308  87.8490 15.69924336 21737,6737.25,91.724,361.455,356.776,0.0
55308.0,STARLINK-5292,PAYLOAD,2023-06-03 19:54:24,15.69924338,0.0003499,69.9976,48.5107,270.2739,89.8056,1.0422e-05,1.04e-05,0.0,0 STARLINK-5292,1 55308U 23010AR  23154.82945402  .00001040  00000-0  10422-4 0  9994,2 55308  69.9976  48.5107 0003499 270.2739  89.8056 15.69924338 22931,6737.25,91.724,361.473,356.758,0.0
55308.0,STARLINK-5292,PAYLOAD,2023-06-04 05:04:55,15.69924376,0.0003531,69.9973,47.4377,262.8635,97.2159,1.183e-05,1.21e-05,0.0,0 STARLINK-5292,1 55308U 23010AR  23155.21175364  .00001210  00000-0  11830-4 0  9993,2 55308  69.9973  47.4377 0003531 262.8635  97.2159 15.69924376 22999,6737.25,91.724,361.494,356.736,0.0
55308.0,STARLINK-5292,PAYLOAD,2023-06-04 18:50:41,15.69929861,0.0003559,69.9972,45.8246,265.0886,94.9903,7.0832e-06,6.39e-06,0.0,0 STARLINK-5292,1 55308U 23010AR  23155.78520219  .00000639  00000-0  70832-5 0  9990,2 55308  69.9972  45.8246 0003559 265.0886  94.9903 15.69929861 21891,6737.235,91.724,361.497,356.702,0.0
55308.0,STARLINK-5292,PAYLOAD,2023-06-04 20:22:26,15.69929901,0.0003635,69.9977,45.6461,265.8338,94.2442,8.7476e-06,8.39e-06,0.0,0 STARLINK-5292,1 55308U 23010AR  23155.84891843  .00000839  00000-0  87476-5 0  9995,2 55308  69.9977  45.6461 0003635 265.8338  94.2442 15.69929901 23098,6737.235,91.724,361.549,356.651,0.0
